TIANMU-1 07             
1 57399U 23101A   26065.57454230  .00008352  00000+0  29795-3 0  9991
2 57399  97.2728 118.5929 0004609 142.4105 217.7458 15.29118809145964
STARLINK-36485          
1 67312U 26002H   26068.03819997  .00047246  00000+0  17153-2 0  9998
2 67312  43.0020 328.5703 0001813 280.2114  79.8533 15.27581687 10982
